[
    {
        "Altitude(m)": 617719.7611805103,
        "Argument of Periapsis(deg)": 0.0,
        "Eccentricity": 0.0,
        "Inclination(deg)": 60.0,
        "Latitude(deg)": -41.10261367635781,
        "Longitude(deg)": 0.09472310624607987,
        "Mean Anomaly(deg)": -130.90909999999997,
        "RAAN(deg)": 250.00000000000003,
        "Satellite Name": "Test1 1114",
        "Satellite Number": 1114,
        "Semi-Major Axis(m)": 6980739.136638005,
        "Time(s)": 0
    },
    {
        "Altitude(m)": 617911.2967791775,
        "Argument of Periapsis(deg)": 0.00010418945913296404,
        "Eccentricity": 0.0,
        "Inclination(deg)": 60.0,
        "Latitude(deg)": -41.565804882675636,
        "Longitude(deg)": 0.599130697273624,
        "Mean Anomaly(deg)": -130.2889938545382,
        "RAAN(deg)": 249.99957995086027,
        "Satellite Name": "Test1 1114",
        "Satellite Number": 1114,
        "Semi-Major Axis(m)": 6980739.136638005,
        "Time(s)": 10
    }
]